{"id":359460,"type":"node","lat":50.915591400000004,"lon":6.9412465,"tags":{"addr:housenumber":"107","addr:street":"Höninger Weg","amenity":"fast_food","cuisine":"pizza","name":"Papa-Pizza","wheelchair":"yes"},"timestamp":"2014-02-07T20:17:33Z"}
{"id":545931,"type":"node","lat":48.7072377,"lon":9.6465332,"tags":{"addr:city":"Göppingen","addr:country":"DE","addr:housename":"Kreis-Medien-Zentrum \u0026 Radiofips","addr:housenumber":"22","addr:postcode":"73033","addr:street":"Eberhardstraße"},"timestamp":"2009-08-17T07:50:21Z"}
{"id":661339,"type":"node","lat":48.1040226,"lon":11.4882626,"tags":{"addr:city":"München","addr:country":"DE","addr:housenumber":"7","addr:postcode":"81377","addr:street":"Lorettoplatz","amenity":"cafe","name":"Cafe Jeanette"},"timestamp":"2010-11-15T13:56:54Z"}
{"id":11007927,"type":"node","lat":51.005413700000005,"lon":13.806691500000001,"tags":{"addr:city":"Dresden","addr:country":"DE","addr:housenumber":"22","addr:postcode":"01239","addr:street":"Langer Weg","entrance":"main"},"timestamp":"2014-08-02T19:08:53Z"}
{"id":15520063,"type":"node","lat":48.9951731,"lon":8.3895265,"tags":{"addr:city":"Karlsruhe","addr:country":"DE","addr:housenumber":"32","addr:postcode":"76137","addr:street":"Ebertstraße","amenity":"fuel","brand":"Aral","contact:phone":"+49 721 817516","fuel:1_25":"no","fuel:1_50":"no","fuel:GTL_diesel":"yes","fuel:HGV_diesel":"no","fuel:biodiesel":"no","fuel:cng":"no","fuel:diesel":"yes","fuel:e10":"yes","fuel:e85":"no","fuel:lpg":"no","fuel:octane_100":"yes","fuel:octane_80":"no","fuel:octane_91":"no","fuel:octane_92":"no","fuel:octane_95":"yes","fuel:octane_98":"no","name":"Aral","opening_hours":"Mo-Fr 06:00-00:00; Sa, Su 07:00-00:00","shop":"yes","surveillance":"outdoor","surveillance:type":"camera"},"timestamp":"2014-01-21T17:50:51Z"}
{"id":16084570,"type":"node","lat":50.131205900000005,"lon":8.6832855,"tags":{"addr:city":"Frankfurt","addr:housenumber":"1","addr:postcode":"60322","addr:street":"Adickesallee","amenity":"library","email":"info-f@dnb.de","fax":"+49 69 15251010","name":"Deutsche Nationalbibliothek","phone":"49 69 15250","ref:isil":"DE-101b","website":"http://www.dnb.de/","wheelchair":"yes","wheelchair:description":"Es gibt zwar Aufzüge und rollstuhlgerechte Toiletten, aber auf all die Ziertreppchen häte man auch einfach verzichten können."},"timestamp":"2015-02-25T18:18:38Z"}
{"id":16257516,"type":"node","lat":49.54868990000001,"lon":8.6643041,"tags":{"addr:city":"Weinheim","addr:country":"DE","addr:housenumber":"31","addr:postcode":"69469","addr:street":"Bergstraße","amenity":"fast_food","brand":"McDonald's","cuisine":"burger","name":"McDonald's","smoking":"no","website":"http://www.mcdonalds.de/","wheelchair":"limited"},"timestamp":"2013-10-12T13:16:59Z"}
{"id":16351361,"type":"node","lat":49.551743200000004,"lon":8.675638300000001,"tags":{"addr:housenumber":"108","addr:street":"Grundelbachstraße","amenity":"restaurant","cuisine":"pizza","name":"Galileo","opening_hours":"Mo-Su 11:00-14:00,17:00-23:00; We off","phone":"+49 6201 68883","website":"http://galileo.sx64.de/","wheelchair":"yes"},"timestamp":"2013-08-03T10:38:09Z"}
{"id":16351362,"type":"node","lat":49.550660300000004,"lon":8.6749475,"tags":{"addr:city":"Weinheim","addr:housenumber":"21","addr:postcode":"69469","addr:street":"Lindenstraße","amenity":"restaurant","created_by":"JOSM","name":"Gasthaus Eulenspiegel"},"timestamp":"2008-11-09T17:35:11Z"}
{"id":16463150,"type":"node","lat":49.5502678,"lon":8.672179700000001,"tags":{"addr:city":"Weinheim","addr:country":"DE","addr:housenumber":"1","addr:postcode":"69469","addr:street":"Dürrestraße","amenity":"bank","atm":"yes","name":"BB Bank"},"timestamp":"2011-08-23T16:02:35Z"}
{"id":16463584,"type":"node","lat":49.5492702,"lon":8.673156,"tags":{"addr:city":"Weinheim","addr:country":"DE","addr:housenumber":"39","addr:postcode":"69469","addr:street":"Grundelbachstraße","amenity":"restaurant","cuisine":"italian","name":"Pizzeria Italia"},"timestamp":"2015-02-05T11:41:22Z"}
{"id":16530242,"type":"node","lat":49.5625091,"lon":8.6652144,"tags":{"addr:city":"Weinheim","addr:housenumber":"149","addr:postcode":"69469","addr:street":"Bergstraße","amenity":"place_of_worship","created_by":"JOSM","name":"Mevlana-Moschee","religion":"muslim"},"timestamp":"2008-12-03T07:54:18Z"}
{"id":16541937,"type":"node","lat":52.160478000000005,"lon":12.7820201,"tags":{"addr:city":"Linthe","addr:country":"DE","addr:housenumber":"1","addr:postcode":"14822","addr:street":"Westfalenstraße","amenity":"fast_food","cuisine":"burger","name":"McDonald's","phone":"033844 52034","wheelchair":"yes"},"timestamp":"2012-10-02T19:38:19Z"}
{"id":16547616,"type":"node","lat":49.5494106,"lon":8.671712900000001,"tags":{"addr:city":"Weinheim","addr:country":"DE","addr:housenumber":"84","addr:postcode":"69469","addr:street":"Hauptstraße","name":"Grimminger","shop":"bakery","wheelchair":"limited"},"timestamp":"2015-02-06T10:39:29Z"}
{"id":16548176,"type":"node","lat":49.547493100000004,"lon":8.674494900000001,"tags":{"addr:city":"Weinheim","addr:housenumber":"16-18","addr:postcode":"69469","addr:street":"Grundelbachstraße","amenity":"fuel","brand":"Jet","name":"JET"},"timestamp":"2012-10-29T02:37:11Z"}
{"id":16559459,"type":"node","lat":48.1214066,"lon":11.6636995,"tags":{"addr:city":"München","addr:country":"DE","addr:housenumber":"220","addr:postcode":"81825","addr:street":"Kreillerstraße","amenity":"fuel","fuel:cng":"yes","name":"Allguth","phone":"+49 89 4272 0360"},"timestamp":"2013-10-18T08:59:12Z"}
{"id":16655326,"type":"node","lat":49.630009400000006,"lon":8.7601858,"tags":{"addr:city":"Rimbach","addr:country":"DE","addr:housenumber":"101","addr:postcode":"64668","addr:street":"Staatsstraße","amenity":"fuel","brand":"Aral","building":"yes","fax":"+49-6253-86405","fuel:GTL_diesel":"yes","fuel:diesel":"yes","fuel:e10":"yes","fuel:octane_102":"yes","fuel:octane_95":"yes","opening_hours":"Mo-Sa 06:00-22:00; Su 07:00-22:00","payment:american_express":"yes","payment:cash":"yes","payment:diners_club":"yes","payment:dkv":"yes","payment:mastercard":"yes","payment:uta":"yes","payment:visa":"yes","phone":"+49-6253-6484","tenant":"Dirk Bak"},"timestamp":"2012-10-29T19:10:32Z"}
{"id":17983325,"type":"node","lat":48.1085713,"lon":11.722428800000001,"tags":{"addr:city":"Haar","addr:country":"DE","addr:housenumber":"16","addr:postcode":"85540","addr:street":"Münchener Straße","amenity":"fuel","fuel:diesel":"yes","fuel:octane_95":"yes","name":"Aral","opening_hours":"24/7","operator":"Aral"},"timestamp":"2014-12-29T17:25:42Z"}
{"id":18172546,"type":"node","lat":48.1982548,"lon":11.3014107,"tags":{"addr:city":"Olching","addr:country":"DE","addr:housenumber":"161a","addr:postcode":"82140","addr:street":"Schloßstraße","amenity":"fuel","fuel:diesel":"yes","fuel:octane_95":"yes","fuel:octane_98":"yes","name":"Esso","wheelchair":"yes"},"timestamp":"2013-10-31T10:45:53Z"}
{"id":18311071,"type":"node","lat":48.7294184,"lon":8.1560216,"tags":{"addr:city":"Baden-Baden","addr:housenumber":"40","addr:postcode":"76534","addr:street":"Poststraße","amenity":"fuel","brand":"Aral","fuel:diesel":"yes","fuel:lpg":"yes","fuel:octane_91":"yes","fuel:octane_95":"yes","fuel:octane_98":"yes","opening_hours":"Mo-Sa 06:00-22:00; Su 07:00-22:00","operator":"Karcher OHG","phone":"+49 7223 96420","wheelchair":"limited"},"timestamp":"2014-12-10T20:43:32Z"}
{"id":19096131,"type":"node","lat":48.691742100000006,"lon":8.3583824,"tags":{"addr:city":"Forbach","addr:country":"DE","addr:housenumber":"1A","addr:postcode":"76596","addr:street":"Murgtalstraße","leisure":"water_park","name":"Montana-Badezentrum","sport":"swimming","website":"http://www.forbach.de/inhalte/tourismus/aktivitaeten_scchwimmen_montana.html"},"timestamp":"2010-12-29T17:28:08Z"}
{"id":21287005,"type":"node","lat":48.1267926,"lon":11.6699836,"tags":{"addr:city":"München","addr:country":"DE","addr:housenumber":"2","addr:postcode":"81829","addr:street":"Kirchtruderinger Straße","amenity":"place_of_worship","denomination":"catholic","name":"Kath. Pfarrgemeinde St. Peter und Paul","religion":"christian","wheelchair":"yes"},"timestamp":"2014-08-15T19:31:45Z"}
{"id":21294583,"type":"node","lat":50.1079221,"lon":11.4572363,"tags":{"addr:city":"Kulmbach","addr:country":"DE","addr:housenumber":"4","addr:postcode":"95326","addr:street":"Grabenstraße","amenity":"restaurant","complementary_currency":"Kulmbach 5er","name":"Alte Feuerwache","phone":"+49 9221 877877","website":"http://www.die-feuerwache.de/"},"timestamp":"2013-02-02T20:02:10Z"}
{"id":21385751,"type":"node","lat":52.5238158,"lon":13.4648786,"tags":{"addr:city":"Berlin","addr:country":"DE","addr:housenumber":"207","addr:postcode":"10369","addr:street":"Storkower Straße","addr:suburb":"Friedrichshain","light_rail":"yes","name":"S Storkower Straße","old_name":"Zentralviehhof","phone":"030 29743333","public_transport":"stop_position","railway":"station","railway:station_category":"4","station":"light_rail","website":"http://www.s-bahn-berlin.de/fahrplanundnetz/bahnhof/uebersicht/142","wheelchair":"yes"},"timestamp":"2014-10-28T13:14:35Z"}
{"id":21480177,"type":"node","lat":48.9994254,"lon":8.4158465,"tags":{"addr:city":"Karlsruhe","addr:housenumber":"11","addr:postcode":"76137","addr:street":"Sybelstraße","amenity":"public_building","name":"Kinderheim"},"timestamp":"2012-09-16T19:13:39Z"}
{"id":21480211,"type":"node","lat":48.9965361,"lon":8.410069700000001,"tags":{"addr:city":"Karlsruhe","addr:country":"DE","addr:housenumber":"100","addr:postcode":"76137","addr:street":"Rüppurrer Straße","amenity":"fuel","brand":"Independent","fixme":"check address","fuel:1_25":"no","fuel:1_50":"no","fuel:GTL_diesel":"no","fuel:HGV_diesel":"no","fuel:biodiesel":"yes","fuel:cng":"no","fuel:diesel":"yes","fuel:e10":"yes","fuel:e85":"no","fuel:lpg":"no","fuel:octane_100":"no","fuel:octane_91":"no","fuel:octane_95":"yes","fuel:octane_98":"yes","maxheight":"3.95","name":"ZG Raiffeisen","opening_hours":"24/7","operator":"ZG Raiffeisen Energie","payment:cash":"no","payment:girocard":"yes","payment:maestro":"yes","payment:mastercard":"yes","payment:others":"no","payment:visa":"yes","payment:vpay":"yes","payment:zg_raiffeisen":"yes","website":"http://www.zg-raiffeisen.de/index.php?id=571"},"timestamp":"2013-12-13T16:42:13Z"}
{"id":21492725,"type":"node","lat":49.0082831,"lon":8.4057557,"tags":{"addr:city":"Karlsruhe","addr:country":"DE","addr:housenumber":"13a","addr:postcode":"76133","addr:street":"Kreuzstraße","amenity":"parking","capacity":"230","capacity:disabled":"1","capacity:women":"33","fee":"yes","maxheight":"2","name":"Am Marktplatz","opening_hours":"Mo-Sa 06:30-01:30; Su,PH 12:00-24:00","operator":"PVB GmbH","payment:karlsruher":"yes","surveillance":"indoor"},"timestamp":"2015-03-16T16:53:18Z"}
{"id":21647984,"type":"node","lat":49.514297400000004,"lon":8.54695,"tags":{"addr:city":"Mannheim","addr:country":"DE","addr:housenumber":"1","addr:postcode":"68309","addr:street":"Magdeburger Straße","amenity":"fuel","brand":"Agip","opening_hours":"Mo-Fr 05:00-24:00; Sa 07:00-24:00; Su 08:00-24:00"},"timestamp":"2014-05-10T07:38:36Z"}
{"id":21673813,"type":"node","lat":51.069050100000005,"lon":13.6901036,"tags":{"addr:city":"Dresden","addr:country":"DE","addr:housenumber":"13","addr:postcode":"01139","addr:street":"Werftstraße","amenity":"fuel","bicycle":"yes","brand":"Aral","foot":"yes","fuel:GTL_diesel":"yes","fuel:HGV_diesel":"yes","fuel:diesel":"yes","fuel:e10":"yes","fuel:octane_100":"yes","fuel:octane_95":"yes","motorcar":"yes","name":"ARAL","opening_hours":"24/7","phone":"+49 351 8496290","wheelchair":"yes"},"timestamp":"2012-01-06T16:18:53Z"}
{"id":21673815,"type":"node","lat":51.0392372,"lon":13.638324200000001,"tags":{"addr:city":"Dresden","addr:country":"DE","addr:housenumber":"336","addr:postcode":"01156","addr:street":"Kesselsdorfer Straße","amenity":"fuel","brand":"Jet","fuel:diesel":"yes","fuel:octane_95":"yes","fuel:octane_98":"yes","name":"JET","operator":"ConocoPhillips","wheelchair":"limited"},"timestamp":"2014-02-14T15:45:20Z"}
{"id":21718406,"type":"node","lat":53.541055,"lon":10.2145615,"tags":{"addr:city":"Glinde","addr:housenumber":"1","addr:postcode":"21509","addr:street":"Markt","amenity":"townhall","name":"Rathaus Glinde","wheelchair":"yes"},"timestamp":"2014-02-19T22:08:41Z"}
{"id":21723751,"type":"node","lat":50.132937000000005,"lon":8.2974285,"tags":{"addr:city":"Wiesbaden","addr:country":"DE","addr:housenumber":"15","addr:postcode":"65207","addr:street":"Kirchhohl","amenity":"fuel","name":"Aral","operator":"Aral","wheelchair":"no"},"timestamp":"2011-10-07T09:37:58Z"}
{"id":23654979,"type":"node","lat":51.7958658,"lon":10.4470787,"tags":{"addr:city":"Clausthal-Zellerfeld","addr:housenumber":"11","addr:postcode":"38707","addr:street":"Auf der Rose","addr:suburb":"Altenau-Schulenberg im Oberharz","contact:website":"http://www.3baeren.de","name":"Jugendhotel \"Drei Bären\"","tourism":"hostel","wheelchair":"limited"},"timestamp":"2015-04-23T20:42:43Z"}
{"id":23655353,"type":"node","lat":52.7803587,"lon":14.000566000000001,"tags":{"addr:city":"Bad Freienwalde","addr:housenumber":"3","addr:postcode":"16259","addr:street":"Hammerthal","name":"Jugendherberge Bad Freienwalde-Hammerthal","phone":"0049-(0)3344-3875","tourism":"hostel","website":"http://www.jh-bad-freienwalde.de","wheelchair":"no"},"timestamp":"2013-05-10T12:05:16Z"}
{"id":23655515,"type":"node","lat":50.554016000000004,"lon":6.775191700000001,"tags":{"addr:city":"Bad Münstereifel","addr:housenumber":"1-5","addr:postcode":"53902","addr:street":"Herbergsweg","name":"DJH Jugendherberge Bad Münstereifel","phone":"+49(2253)7438","tourism":"hostel","website":"http://www.jugendherberge.de/de/jugendherbergen/visitenkarte/jh.jsp?IDJH=436"},"timestamp":"2010-12-19T21:47:45Z"}
{"id":23655539,"type":"node","lat":52.2658611,"lon":14.0659615,"tags":{"addr:city":"Bad Saarow","addr:country":"DE","addr:housenumber":"20","addr:postcode":"15526","addr:street":"Dorfstraße","addr:suburb":"Bad Saarow-Peskow","contact:email":"jh-bad-saarow@jugendherberge.de","contact:fax":"+49 33631 59023","contact:phone":"+49 33631 2664","name":"Jugendherberge Bad Saarow","note:de":"Ganzjährig. Reservierung erwünscht in der Zeit vom 01.12.-28.01. geschlossen","phone":"+49 33631 26 64","tourism":"hostel","website":"http://www.jh-bad-saarow.de","wheelchair":"limited"},"timestamp":"2013-05-23T08:39:54Z"}
{"id":23656170,"type":"node","lat":54.4970513,"lon":9.671406000000001,"tags":{"addr:city":"Borgwedel","addr:country":"DE","addr:housename":"JGH Borgwedel","addr:housenumber":"17","addr:postcode":"24857","addr:street":"Kreisstraße","email":"jh-borgwedel@djh.de","name":"Jugendherberge Borgwedel","phone":"+49-4354-219","tourism":"hostel","url":"http://www.jugendherberge.de/jh/borgwedel","wheelchair":"yes"},"timestamp":"2013-11-29T10:48:29Z"}
{"id":23656304,"type":"node","lat":51.7226306,"lon":10.596991200000001,"tags":{"addr:city":"Braunlage","addr:country":"DE","addr:housenumber":"28","addr:postcode":"38700","addr:street":"von-Langen-Straße","contact:phone":"+49 5520 2238","fax":"+49 5520 1569","name":"Jugendherberge Braunlage","operator":"Deutsches Jugendherbergswerk","tourism":"hostel","website":"www.braunlage.jugendherberge.de"},"timestamp":"2015-02-25T09:24:08Z"}
{"id":23656400,"type":"node","lat":51.383111500000005,"lon":8.587468900000001,"tags":{"addr:city":"Brilon","addr:country":"DE","addr:housenumber":"1","addr:postcode":"59929","addr:street":"Hölsterloh","amenity":"restaurant","cuisine":"german","email":"info@waldhotel-klaholz.de","fax":"+49296150470","name":"Waldhotel Klaholz","phone":"+4929613473","stars":"3","tourism":"hotel","website":"http://www.waldhotel-klaholz.de/"},"timestamp":"2014-07-20T17:43:38Z"}
{"id":23656637,"type":"node","lat":50.8257108,"lon":12.980469800000002,"tags":{"addr:city":"Chemnitz","addr:country":"DE","addr:housenumber":"369","addr:postcode":"09127","addr:street":"Augustusburger Straße","name":"Jugendherberge Chemnitz","phone":"0371-71331","source":"local_knowledge","tourism":"hostel","website":"http://www.jugendherberge.de/Jugendherbergen/Chemnitz46/Portraet"},"timestamp":"2013-10-16T16:55:59Z"}
{"id":23656684,"type":"node","lat":50.1542259,"lon":7.171621,"tags":{"addr:city":"Cochem","addr:housenumber":"9","addr:postcode":"56812","addr:street":"Klottener Straße","email":"cochem@diejugendherbergen.de","fax":"+49 2671 8568","name":"Moseltal-Jugendherberge","operator":"Jürgen Völkel","phone":"+49 2671 8633","source":"http://www.diejugendherbergen.de/jugendherbergen/cochem/portrait/","source:date":"2015-03-31","tourism":"hostel","website":"http://www.diejugendherbergen.de/jugendherbergen/cochem/portrait/"},"timestamp":"2015-03-31T15:56:40Z"}
{"id":23656696,"type":"node","lat":51.1307218,"lon":12.8079453,"tags":{"addr:city":"Colditz","addr:country":"DE","addr:housenumber":"1","addr:postcode":"04680","addr:street":"Schloßgasse","name":"Jugendherberge Colditz","phone":"+49 34381 45010","postal_code":"04680","tourism":"hostel","wheelchair":"yes"},"timestamp":"2014-03-15T21:50:19Z"}
{"id":23656879,"type":"node","lat":52.5310416,"lon":8.2030966,"tags":{"addr:housenumber":"6","addr:street":"Wellenweg","name":"Waldhotel zum Bergsee","phone":"+49 5491  95660","tourism":"hotel","website":"http://www.waldhotel-zum-bergsee.de/","wheelchair":"no"},"timestamp":"2014-10-18T06:40:54Z"}
{"id":23657102,"type":"node","lat":51.1036062,"lon":13.657122200000002,"tags":{"addr:city":"Radebeul","addr:housenumber":"12","addr:postcode":"01445","addr:street":"Weintraubenstraße","name":"DJH Jugendherberge Radebeul","phone":"0351 8382880","stars":"2","tourism":"hostel","website":"http://www.radebeul.jugendherberge.de","wheelchair":"unknown"},"timestamp":"2013-05-19T11:38:11Z"}
{"id":23657202,"type":"node","lat":50.963516000000006,"lon":11.0159269,"tags":{"addr:city":"Erfurt","addr:country":"DE","addr:housenumber":"12","addr:postcode":"99094","addr:street":"Hochheimerstraße","name":"DJH Jugendherberge Erfurt Hochheimerstraße","phone":"+49 (0)361 5626705","tourism":"hostel","website":"www.erfurt-hochheimerstr.jugendherberge.de","wheelchair":"yes"},"timestamp":"2014-03-04T23:42:13Z"}
{"id":23657224,"type":"node","lat":48.3493507,"lon":9.1765083,"tags":{"addr:city":"Sonnenbühl-Erpfingen","addr:housenumber":"1","addr:postcode":"72820","addr:street":"Auf der Reute","name":"Jugendherberge Sonnenbühl-Erpfingen","opening_hours":"Jan 1-Mar 12,Dec 27-Dec 31","phone":"+49 7128 1652","tourism":"hostel","website":"http://sonnenbuehl-erpfingen.jugendherberge-bw.de/"},"timestamp":"2013-12-15T16:09:57Z"}
{"id":23657309,"type":"node","lat":52.870311400000006,"lon":9.6966903,"tags":{"addr:housenumber":"1","addr:postcode":"29683","addr:street":"Liethweg","name":"Jugendherberge Bad Fallingbostel","phone":"+49-5162-2274","tourism":"hostel"},"timestamp":"2015-03-01T23:17:09Z"}
{"id":23657324,"type":"node","lat":49.1648979,"lon":10.3404387,"tags":{"addr:city":"Feuchtwangen","addr:housenumber":"1","addr:postcode":"91555","addr:street":"Dr.-Hans-Güthlein-Weg","name":"Jugendherberge Feuchtwangen","phone":"+49 9852 67099-0","tourism":"hostel"},"timestamp":"2014-07-17T10:39:32Z"}
{"id":23657656,"type":"node","lat":51.898972500000006,"lon":10.4191053,"tags":{"addr:city":"Goslar","addr:country":"DE","addr:housenumber":"25","addr:postcode":"38644","addr:street":"Rammelsberger Straße","internet_access":"wlan;terminal","name":"Jugendherberge Goslar","tourism":"hostel","website":"http://www.djh-niedersachsen.de/jh/goslar/","wheelchair":"yes"},"timestamp":"2013-09-04T21:16:30Z"}
{"id":23657735,"type":"node","lat":54.087305300000004,"lon":13.3834812,"tags":{"addr:country":"DE","addr:housenumber":"11,12","addr:street":"Pestalozzistraße","name":"Jugendherberge Greifswald","tourism":"hostel","wheelchair":"no"},"timestamp":"2014-08-17T15:45:13Z"}
{"id":23657749,"type":"node","lat":51.245891400000005,"lon":12.664029500000002,"tags":{"FIXME":"Bitte nicht löschen; siehe http://wiki.openstreetmap.org/index.php?title=DE:Naturfreundehäuser","addr:city":"Grethen","addr:country":"DE","addr:housenumber":"5","addr:postcode":"04668","addr:street":"Herbergsweg","name":"»Leipziger Naturfreundehaus« Grethen","operator":"NaturFreunde Deutschland","ref":"S 012","source":"Datenspende der NaturFreunde Deutschland","tourism":"hostel"},"timestamp":"2009-12-25T11:10:41Z"}
{"id":23657903,"type":"node","lat":52.724879400000006,"lon":10.608452100000001,"tags":{"addr:city":"Hankensbüttel","addr:housenumber":"24","addr:postcode":"29386","addr:street":"Helmrichsweg","fax":"+49-5832-6596","name":"Jugendherberge Hankensbüttel","phone":"+49-5832-2500","tourism":"hostel","wheelchair":"yes"},"timestamp":"2011-10-29T20:37:51Z"}
{"id":23658160,"type":"node","lat":53.9475385,"lon":14.178783200000002,"tags":{"addr:city":"Ostseebad Heringsdorf","addr:housenumber":"7-9","addr:postcode":"17424","addr:street":"Puschkinstraße","name":"Jugendherberge Heringsdorf","phone":"038378 22325","tourism":"hostel","website":"http://www.jugendherbergen-mv.de/de-de/jugendherbergen/heringsdorf178/portraet","wheelchair":"yes"},"timestamp":"2015-05-12T14:53:00Z"}
{"id":23658174,"type":"node","lat":49.654547,"lon":6.943209,"tags":{"addr:city":"Hermeskeil","addr:country":"DE","addr:housenumber":"4","addr:postcode":"54411","addr:street":"Adolf-Kolping-Straße","tourism":"hostel"},"timestamp":"2013-10-29T17:49:13Z"}
{"id":23658466,"type":"node","lat":48.7648446,"lon":11.4145629,"tags":{"addr:housename":"Jugendherberge Ingolstadt","addr:housenumber":"4 1/2","addr:postcode":"85049","addr:street":"Friedhofstraße","int_name":"Youth Hostel Ingolstadt","name":"Jugendherberge Ingolstadt","source":"HiRes aerial imagery","tourism":"hostel","wheelchair":"limited"},"timestamp":"2013-05-01T17:34:34Z"}
{"id":23658650,"type":"node","lat":54.149497100000005,"lon":11.7568272,"tags":{"addr:city":"Kühlungsborn","addr:country":"DE","addr:housenumber":"4","addr:postcode":"18225","addr:street":"Dühnenstraße","name":"JGH Kühlungsborn","postal_code":"18225","tourism":"hostel","wheelchair":"unknown","wheelchair:description":"Barrierefreie Zimmer, super geräumig!"},"timestamp":"2014-08-17T16:33:55Z"}
{"id":23658664,"type":"node","lat":54.657129700000006,"lon":9.942149500000001,"tags":{"addr:city":"Kappeln","addr:country":"DE","addr:housenumber":"2","addr:postcode":"24376","addr:street":"Eckernförder Straße","name":"DJH Jugendherberge Kappeln","phone":"+49 4642 8550","tourism":"hostel","website":"kappeln.jugendherberge.de","wheelchair":"yes"},"timestamp":"2014-08-05T11:31:08Z"}
{"id":23658761,"type":"node","lat":54.313679400000005,"lon":10.1426715,"tags":{"addr:city":"Kiel","addr:country":"DE","addr:housenumber":"1","addr:postcode":"24143","addr:street":"Johannesstraße","name":"Jugendherberge Kiel","phone":"0431 731488","tourism":"hostel","website":"http://www.jugendherberge.de/jh/kiel","wheelchair":"yes"},"timestamp":"2012-07-09T23:33:55Z"}
{"id":23658856,"type":"node","lat":50.244571500000006,"lon":11.328120100000001,"tags":{"addr:city":"Kronach","addr:country":"DE","addr:housenumber":"1","addr:postcode":"96317","addr:street":"Festung","name":"Festungsherberge","phone":"+49-(0)9261-94412","tourism":"hostel"},"timestamp":"2011-07-24T18:13:15Z"}
{"id":23659184,"type":"node","lat":47.554065200000004,"lon":9.700087,"tags":{"addr:city":"Lindau","addr:country":"DE","addr:housenumber":"11","addr:postcode":"88131","addr:street":"Herbergsweg","name":"JH Lindau","source":"DOP vom LVG Bayern lizensiert von Benutzer britschler","tourism":"hostel","wheelchair":"yes"},"timestamp":"2013-02-03T07:38:17Z"}
{"id":23659323,"type":"node","lat":52.8671372,"lon":10.119358,"tags":{"addr:city":"Müden (Örtze)","addr:housenumber":"32","addr:street":"Wiesenweg","name":"JGH Müden","tourism":"hostel","wheelchair":"limited"},"timestamp":"2014-04-15T06:32:40Z"}
{"id":23659405,"type":"node","lat":49.9868864,"lon":8.295358400000001,"tags":{"addr:city":"Mainz","addr:country":"DE","addr:housenumber":"4","addr:postcode":"55130","addr:street":"Otto-Brunfels-Schneise","name":"DJH Jugendherberge Mainz","phone":"+49 6131 85332","tourism":"hostel","website":"http://www.jugendherberge.de/Jugendherbergen/Mainz411","wheelchair":"unknown"},"timestamp":"2014-09-03T10:56:10Z"}
{"id":23659434,"type":"node","lat":54.1746173,"lon":10.5753371,"tags":{"addr:city":"Plön","addr:housename":"JGH Bad Malente","addr:housenumber":"48","addr:postcode":"23714","addr:street":"Kellerseestraße","name":"JGH Bad Malente","phone":"+4945231723","tourism":"hostel"},"timestamp":"2009-05-08T14:11:52Z"}
{"id":23659609,"type":"node","lat":52.520648200000004,"lon":12.31052,"tags":{"addr:city":"Milower Land OT Milow","addr:country":"DE","addr:housenumber":"21","addr:postcode":"14715","addr:street":"Friedensstraße","name":"Jugendherberge Milow - Carl Bolle","phone":"+49 3386 280 361","tourism":"hostel","website":"http://www.jh-milow.de/","wheelchair":"no"},"timestamp":"2013-05-10T11:47:40Z"}
{"id":23659693,"type":"node","lat":53.89603,"lon":13.649590000000002,"tags":{"addr:city":"Murchin","addr:country":"DE","addr:housenumber":"1","addr:postcode":"17390","addr:street":"Jugendherberge","name":"JGH Murchin","phone":"+49-(0)3971-210732","tourism":"hostel"},"timestamp":"2009-09-08T13:23:08Z"}
{"id":23659722,"type":"node","lat":49.4581497,"lon":11.077640200000001,"tags":{"addr:city":"Nürnberg","addr:country":"DE","addr:housenumber":"2","addr:postcode":"90403","addr:street":"Burg","name":"Jugendherberge Nürnberg","tourism":"hostel","website":"http://nuernberg.jugendherberge.de/Portraet","wheelchair":"yes"},"timestamp":"2014-09-02T16:51:21Z"}
{"id":23659737,"type":"node","lat":51.1408233,"lon":11.810698400000001,"tags":{"addr:city":"Naumburg","addr:country":"DE","addr:housenumber":"9","addr:postcode":"06618","addr:street":"Am Tennisplatz","name":"JGH Naumburg","phone":"+49-(0)3445-703422","tourism":"hostel"},"timestamp":"2011-10-08T20:21:05Z"}
{"id":23659752,"type":"node","lat":51.292394800000004,"lon":11.5720056,"tags":{"addr:city":"Nebra","addr:country":"DE","addr:housenumber":"29","addr:postcode":"06642","addr:street":"Altenburgstraße","name":"JGH Nebra","phone":"+49-(0)34461-25454","tourism":"hostel","wheelchair":"no","wheelchair:description":"katastrophal starke Gefälle von mehr als 40° besonders zum Speisesaal hinauf, unebene Wege, lediglich die Zimmer+WC sind barrierefrei, Weg zum Zimmer 3/4 um das Haus herum ebenfalls stark uneben und ohne Zwischenplateaus"},"timestamp":"2011-09-12T11:47:07Z"}
{"id":23659839,"type":"node","lat":54.0661136,"lon":9.981297900000001,"tags":{"addr:city":"Neumünster","addr:housename":"JGH Neumünster Kiek in","addr:housenumber":"32","addr:postcode":"24534","addr:street":"Gartenstraße","name":"JGH Neumünster Kiek in","phone":"+494321419960","tourism":"youth_hostel"},"timestamp":"2010-02-25T21:26:54Z"}
{"id":23660064,"type":"node","lat":51.079660700000005,"lon":8.1784522,"tags":{"addr:city":"Kirchhundem","addr:housenumber":"1","addr:postcode":"57399","addr:street":"Wilhelm-Münker-Weg","name":"Jugendherberge Oberhundem","phone":"+49 2723 72640","source:date":"2015-03-03","tourism":"hostel"},"timestamp":"2015-03-04T09:01:26Z"}
{"id":23660187,"type":"node","lat":53.1526622,"lon":8.210714600000001,"tags":{"addr:city":"Oldenburg","addr:housename":"JGH Oldenburg","addr:housenumber":"65","addr:postcode":"26121","addr:street":"Alexanderstraße","name":"Jugendherberge Oldenburg/Oldenburg","phone":"+4944187135","tourism":"hostel","wheelchair":"no"},"timestamp":"2012-05-22T22:00:03Z"}
{"id":23660231,"type":"node","lat":51.025032100000004,"lon":12.6628789,"tags":{"addr:city":"Narsdorf","addr:country":"DE","addr:housenumber":"69","addr:postcode":"04657","addr:street":"Dorfstraße","addr:suburb":"Ossa","name":"JGH Ossa","phone":"+49-(0)34346-60587","tourism":"hostel"},"timestamp":"2013-08-21T22:23:23Z"}
{"id":23660883,"type":"node","lat":50.68758690000001,"lon":13.431714900000001,"tags":{"FIXME":"Genaue Lage","addr:city":"Sayda","addr:country":"DE","addr:housenumber":"8","addr:postcode":"09619","addr:street":"Mortelgrund","name":"JGH Sayda","note":"blind verschoben nach südlich von Sayda (präzisieren)","phone":"+49-(0)37365-1277","tourism":"hostel"},"timestamp":"2013-03-23T10:40:23Z"}
{"id":23660954,"type":"node","lat":54.021413100000004,"lon":10.6992516,"tags":{"addr:city":"Scharbeutz","addr:country":"DE","addr:housename":"JGH Scharbeutz-Uhlenflucht","addr:housenumber":"30","addr:postcode":"23684","addr:street":"Uhlenflucht","addr:suburb":"Klingberg","name":"Jugendherberge Scharbeutz-Uhlenflucht","phone":"+494524428","tourism":"hostel"},"timestamp":"2014-10-31T21:32:59Z"}
{"id":23660991,"type":"node","lat":54.5171968,"lon":9.5524336,"tags":{"addr:city":"Schleswig","addr:country":"DE","addr:housename":"JGH Schleswig","addr:housenumber":"1","addr:postcode":"24837","addr:street":"Spielkoppel","alt_name":"JGH Schleswig","name":"Jugendherberge Schleswig","phone":"+49 4621 23893","tourism":"hostel"},"timestamp":"2014-02-13T19:37:18Z"}
{"id":23661136,"type":"node","lat":50.1531109,"lon":7.7074699,"tags":{"addr:city":"Sankt Goar","addr:housenumber":"17","addr:postcode":"56329","addr:street":"Bismarckweg","email":"st-goar@diejugendherbergen.de","fax":"+49 6741 2869","name":"Loreley-Jugendherberge","phone":"+49 6741 388","tourism":"hostel","website":"http://www.diejugendherbergen.de/jugendherbergen/st.-goar/portrait/","wheelchair":"yes"},"timestamp":"2014-09-04T10:41:38Z"}
{"id":23661461,"type":"node","lat":52.917266500000004,"lon":7.9452126000000005,"tags":{"addr:city":"Garrel","addr:housenumber":"4","addr:postcode":"49681","addr:street":"Drei-Brücken-Weg","name":"49-(0)4495-475","operator":"Wilhelm Einhaus","tourism":"hostel"},"timestamp":"2014-05-20T13:20:56Z"}
{"id":23661543,"type":"node","lat":49.520335900000006,"lon":12.2648644,"tags":{"addr:city":"Trausnitz","addr:country":"DE","addr:housenumber":"2","addr:postcode":"92555","addr:street":"Burggasse","name":"JGH Trausnitz","phone":"+49-(0)9655-9215-0","tourism":"hostel"},"timestamp":"2011-12-27T12:02:51Z"}
{"id":23661597,"type":"node","lat":52.485733,"lon":6.8696035,"tags":{"addr:city":"Uelsen","addr:housename":"JGH Uelsen/Grafschaft Bentheim","addr:housenumber":"12","addr:postcode":"49843","addr:street":"Linnebachweg","name":"JGH Uelsen/Grafschaft Bentheim","phone":"+495942718","tourism":"hostel"},"timestamp":"2008-11-03T10:58:20Z"}
{"id":23661707,"type":"node","lat":49.7894238,"lon":9.924365100000001,"tags":{"addr:housename":"Jugendherberge Würzburg","addr:housenumber":"2","addr:postcode":"97082","addr:street":"Fred-Joseph-Platz","capacity":"238","contact:email":"wuerzburg@jugendherberge.de","contact:fax":"+49 931 416862","contact:phone":"+49 931 42590","contact:website":"www.jugendherberge.de/Jugendherbergen/Wuerzburg281/Portraet/","entrance":"yes","name":"Jugendherberge Würzburg","tourism":"hostel","wheelchair":"yes"},"timestamp":"2013-05-23T20:08:21Z"}
{"id":23662042,"type":"node","lat":51.302800600000005,"lon":8.6302222,"tags":{"addr:housenumber":"9-12","addr:street":"Am Lukasheim","beds":"132","email":"jh-willingen@jugendherberge.de","fax":"+49 5632 4343","name":"Jugendherberge Willingen","operator":"Tino Herbst","phone":"+49 5632 6347","tourism":"hostel","website":"http://www.willingen.jugendherberge.de/"},"timestamp":"2014-02-19T21:37:39Z"}
{"id":23662055,"type":"node","lat":53.74304660000001,"lon":9.0868642,"tags":{"addr:city":"Wingst","addr:housename":"JGH Wingst","addr:housenumber":"11","addr:postcode":"21789","addr:street":"Göhler Straße","name":"JGH Wingst","phone":"+494778262","tourism":"hostel","wheelchair":"limited"},"timestamp":"2013-10-24T22:36:18Z"}
{"id":23662119,"type":"node","lat":54.6259292,"lon":8.3952451,"tags":{"addr:city":"Wittdün","addr:country":"DE","addr:housename":"JGH Wittdün","addr:housenumber":"1","addr:postcode":"25946","addr:street":"Mittelstraße","created_by":"xybot","name":"DJH Jugendherberge Wittdün","phone":"+4946822010","source":"survey","tourism":"hostel","url":"http://www.jugendherberge.de/Jugendherbergen/Wittduen556/","website":"http://www.jugendherberge.de/Jugendherbergen/Wittduen556/","wheelchair":"limited"},"timestamp":"2013-10-05T05:15:56Z"}
{"id":23662158,"type":"node","lat":49.6287937,"lon":8.3587209,"tags":{"addr:city":"Worms","addr:country":"DE","addr:housenumber":"1","addr:postcode":"67547","addr:street":"Dechaneigasse","name":"JGH Worms","phone":"+49-(0)6241-25780","tourism":"hostel"},"timestamp":"2013-02-27T20:52:34Z"}
{"id":23662337,"type":"node","lat":51.107368400000006,"lon":6.989682,"tags":{"addr:city":"Leichlingen","addr:country":"DE","addr:housename":"Naturfreundehaus Leichlingen","addr:housenumber":"4","addr:postcode":"42799","addr:street":"Am Block","name":"Naturfreundehaus Leichlingen","operator":"NaturFreunde Deutschland","phone":"+4921752917","ref":"F 018","source":"Datenspende der NaturFreunde Deutschland","tourism":"hostel","website":"http://www.nfh-leichlingen.de/Unser_Haus.html"},"timestamp":"2015-01-19T20:19:53Z"}
{"id":24913646,"type":"node","lat":48.95773560000001,"lon":8.4066232,"tags":{"addr:city":"Ettlingen","addr:country":"DE","addr:housenumber":"50a","addr:postcode":"76275","addr:street":"Karlsruher Straße","amenity":"fuel","brand":"Aral","fax":"+49 7243 14509","fuel:GTL_diesel":"yes","fuel:HGV_diesel":"yes","fuel:adblue":"yes","fuel:cng":"yes","fuel:diesel":"yes","fuel:lpg":"yes","fuel:octane_100":"yes","fuel:octane_95":"yes","name":"ARAL","opening_hours":"24/7","phone":"+49 7243 12372","shop":"yes"},"timestamp":"2013-06-13T18:17:41Z"}
{"id":24924135,"type":"node","lat":49.8800274,"lon":8.645374,"tags":{"addr:city":"Darmstadt","addr:housenumber":"41","addr:postcode":"64293","addr:street":"Kahlertstraße","amenity":"pub","name":"Kneipe 41","note":"DaLUG Meeting (4st Friday of month 19:30)","smoking":"no","website":"http://www.kneipe41.de/","wheelchair":"limited"},"timestamp":"2012-05-25T15:13:47Z"}
{"id":24951840,"type":"node","lat":49.642426400000005,"lon":11.0031467,"tags":{"addr:city":"Möhrendorf","addr:housenumber":"19","addr:postcode":"91096","addr:street":"Kleinseebacher Straße","amenity":"place_of_worship","denomination":"lutheran","name":"St. Laurentius-Kirche","opening_hours":"Mo-Fr 09:30-17:00; Sa 10:00-15:00","phone":"+49913143386","religion":"christian","website":"http://www.moehrendorf-evangelisch.de"},"timestamp":"2013-04-07T16:47:50Z"}
{"id":24956467,"type":"node","lat":48.5643364,"lon":9.2253249,"tags":{"addr:city":"Reutlingen","addr:country":"DE","addr:housenumber":"90","addr:postcode":"72766","addr:street":"Neckartenzlinger Straße","addr:suburb":"Mittelstadt","amenity":"restaurant","fax":"+49 7127 811725","name":"Klostermühle","phone":"+49 7127 81170","website":"http://www.klostermuehle-reutlingen.de/"},"timestamp":"2015-04-06T18:52:46Z"}
{"id":24958688,"type":"node","lat":48.8648065,"lon":8.4952024,"tags":{"addr:housename":"Schützenhaus","addr:housenumber":"2","addr:postcode":"76307","addr:street":"Am Sportplatz","amenity":"restaurant","cuisine":"german","name":"Zum Schützenhaus"},"timestamp":"2013-05-26T13:59:33Z"}
{"id":24982681,"type":"node","lat":48.863835900000005,"lon":8.4480743,"tags":{"addr:city":"Marxzell","addr:country":"DE","addr:housenumber":"18","addr:postcode":"76359","addr:street":"Albtalstraße","amenity":"fuel","brand":"Aral","fax":"+49 7248 6939","name":"Aral","opening_hours":"Mo-Fr 06:00-20:00; Sa 08:00-17:00; Su 09:00-17:00","operator":"Achim Burkart","phone":"+49 7248 6939","website":"http://www.aral.de/toolserver/retaileurope/fuelstationhomepage.do?fuelstationide28810900"},"timestamp":"2012-01-14T13:03:37Z"}
{"id":25149456,"type":"node","lat":53.586235200000004,"lon":10.0444651,"tags":{"addr:housenumber":"12","addr:street":"Poppenhusenstraße","amenity":"library","contact:phone":"+49 40 29 15 91","name":"Bücherhalle Barmbek","ref:isil":"none"},"timestamp":"2011-05-23T19:54:26Z"}
{"id":25232992,"type":"node","lat":51.0344635,"lon":13.6475085,"tags":{"addr:city":"Dresden","addr:country":"DE","addr:housenumber":"2","addr:postcode":"01156","addr:street":"Otto-Harzer-Straße","name":"KIM Hotel im Park","tourism":"hotel","wheelchair":"yes"},"timestamp":"2014-02-14T15:37:43Z"}
{"id":25236152,"type":"node","lat":49.001429400000006,"lon":8.408214300000001,"tags":{"addr:city":"Karlsruhe","addr:housenumber":"43","addr:postcode":"76137","addr:street":"Marienstraße","amenity":"pharmacy","name":"Marienapotheke","opening_hours":"Mo-Fr 08:30-13:00, 14:30-18:30; Sa 08:30-13:00","wheelchair":"yes"},"timestamp":"2011-02-20T11:11:58Z"}
{"id":25236155,"type":"node","lat":49.007620300000006,"lon":8.410418700000001,"tags":{"addr:city":"Karlsruhe","addr:housenumber":"27a","addr:postcode":"76131","addr:street":"Markgrafenstraße","amenity":"pharmacy","name":"Johannes-Apotheke","opening_hours":"Mo-Fr 09:00-18:30; Sa 09:00-13:00","wheelchair":"yes"},"timestamp":"2013-11-06T11:38:39Z"}
{"id":25236157,"type":"node","lat":48.9983723,"lon":8.3904036,"tags":{"addr:city":"Karlsruhe","addr:country":"DE","addr:housenumber":"29","addr:postcode":"76137","addr:street":"Südendstraße","amenity":"pharmacy","contact:email":"hartmann@diespitzwegapotheke.de","contact:fax":"+49 721 818145","contact:phone":"+49 721 818145","contact:website":"www.diespitzwegapotheke.de","dispensing":"yes","name":"Spitzwegapotheke","opening_hours":"Mo-Fr 08:30-13:00, 15:00-18:30, Sa 09:00-13:00, Ph off","operator":"Michael Hartmann"},"timestamp":"2015-02-08T15:06:37Z"}
{"id":25242198,"type":"node","lat":49.0077605,"lon":8.356067600000001,"tags":{"addr:city":"Karlsruhe","addr:country":"DE","addr:housenumber":"6","addr:postcode":"76185","addr:street":"Durmersheimer Straße","amenity":"restaurant","beer_garden":"yes","cuisine":"german","name":"Beim Schupi","opening_hours":"Mo-Sa 17:00+; Su 11:00+","phone":"+49 721 551220","website":"http://www.schupi.de","wheelchair":"yes"},"timestamp":"2013-02-14T20:44:33Z"}
{"id":25242287,"type":"node","lat":48.99013050000001,"lon":8.3861293,"tags":{"addr:city":"Karlsruhe","addr:country":"DE","addr:housenumber":"14","addr:postcode":"76135","addr:street":"Sankt-Florian-Straße","addr:suburb":"Beiertheim-Bulach","amenity":"restaurant","contact:phone":"+49 721 861450","cuisine":"german","name":"s'Häusle","opening_hours":"Mo-Fr, Su 11:00-14:00, 17:00-00:00; Sa 17:00-00:00; Th off","website":"www.shaeusle.de","wheelchair":"limited"},"timestamp":"2013-02-14T20:19:23Z"}
{"id":25264978,"type":"node","lat":53.472757,"lon":9.8533039,"tags":{"addr:housenumber":"342","addr:postcode":"21149","addr:street":"Cuxhavener Straße","amenity":"restaurant","name":"Schweinske","website":"http://www.schweinske.info/index.php?id=57","wheelchair":"limited"},"timestamp":"2013-04-25T23:31:04Z"}
{"id":25264980,"type":"node","lat":53.47245100000001,"lon":9.847926000000001,"tags":{"addr:city":"Hamburg","addr:country":"DE","addr:housenumber":"361","addr:postcode":"21149","addr:street":"Cuxhavener Straße","amenity":"fuel","fuel:lpg":"yes","name":"Shell Neugraben","wheelchair":"yes"},"timestamp":"2015-02-26T09:56:20Z"}
